{"fetched_at":"2026-03-30T13:17:50Z","count":15418,"tles":[{"name":"STARLINK-35762","line1":"1 67172U 25303K   26087.66503261  .00026797  00000+0  97904-3 0  9990","line2":"2 67172  42.9996 203.8558 0000962 282.7518  77.3226 15.27604650 15633","category":"Starlink"}]}