{
  "norad_id": 67172,
  "name": "STARLINK-35762",
  "history": [
    {
      "epoch": "2026-03-28T15:57:38.817504",
      "apogee_km": 483.63553089968536,
      "perigee_km": 482.31504122910974,
      "latitude_deg": -8.683446870197104,
      "longitude_deg": -118.95686944015324,
      "semi_major_axis_km": 6861.112286064397,
      "eccentricity": 9.623e-05,
      "inclination_deg": 42.9996,
      "raan_deg": 203.8558,
      "arg_perigee_deg": 282.7518,
      "mean_anomaly_deg": 77.3226,
      "mean_motion_rev_day": 15.2760465
    }
  ]
}